[{"OBJECT_NAME":"ONEWEB-0421","OBJECT_ID":"2021-132AD","EPOCH":"2026-03-09T18:24:51.777216","MEAN_MOTION":13.18685741,"ECCENTRICITY":0.00014802,"INCLINATION":87.925,"RA_OF_ASC_NODE":355.2026,"ARG_OF_PERICENTER":78.3043,"MEAN_ANOMALY":281.8255,"EPHEMERIS_TYPE":0,"CLASSIFICATION_TYPE":"U","NORAD_CAT_ID":50496,"ELEMENT_SET_NO":999,"REV_AT_EPOCH":20851,"BSTAR":-0.00020853405,"MEAN_MOTION_DOT":-6.9e-7,"MEAN_MOTION_DDOT":0},{"OBJECT_NAME":"FENGYUN 1C DEB","OBJECT_ID":"1999-025CMA","EPOCH":"2026-03-09T04:04:50.553120","MEAN_MOTION":13.5517714,"ECCENTRICITY":0.03009498,"INCLINATION":98.4294,"RA_OF_ASC_NODE":154.4995,"ARG_OF_PERICENTER":79.2955,"MEAN_ANOMALY":284.1918,"EPHEMERIS_TYPE":0,"CLASSIFICATION_TYPE":"U","NORAD_CAT_ID":31923,"ELEMENT_SET_NO":999,"REV_AT_EPOCH":64805,"BSTAR":0.0013130873,"MEAN_MOTION_DOT":1.179e-5,"MEAN_MOTION_DDOT":0}]
